[
  {
    "CCSDS_OMM_VERS": "3.0",
    "COMMENT": "GENERATED VIA SPACE-TRACK.ORG API",
    "CREATION_DATE": "2026-02-19T17:59:09",
    "ORIGINATOR": "18 SPCS",
    "OBJECT_NAME": "PUJIANG 2 (PJ-2)",
    "OBJECT_ID": "2022-031B",
    "CENTER_NAME": "EARTH",
    "REF_FRAME": "TEME",
    "TIME_SYSTEM": "UTC",
    "MEAN_ELEMENT_THEORY": "SGP4",
    "EPOCH": "2026-02-19T15:36:32.789664",
    "MEAN_MOTION": "14.94151087",
    "ECCENTRICITY": "0.00108414",
    "INCLINATION": "97.8570",
    "RA_OF_ASC_NODE": "236.0769",
    "ARG_OF_PERICENTER": "229.3802",
    "MEAN_ANOMALY": "130.6475",
    "EPHEMERIS_TYPE": "0",
    "CLASSIFICATION_TYPE": "U",
    "NORAD_CAT_ID": "52151",
    "ELEMENT_SET_NO": "999",
    "REV_AT_EPOCH": "21224",
    "BSTAR": "0.00007264040700",
    "MEAN_MOTION_DOT": "0.00000719",
    "MEAN_MOTION_DDOT": "0.0000000000000",
    "SEMIMAJOR_AXIS": "6963.146",
    "PERIOD": "96.376",
    "APOAPSIS": "592.560",
    "PERIAPSIS": "577.462",
    "OBJECT_TYPE": "PAYLOAD",
    "RCS_SIZE": "LARGE",
    "COUNTRY_CODE": "PRC",
    "LAUNCH_DATE": "2022-03-29",
    "SITE": "TSC",
    "DECAY_DATE": null,
    "FILE": "5039972",
    "GP_ID": "313175039",
    "TLE_LINE0": "0 PUJIANG 2 (PJ-2)",
    "TLE_LINE1": "1 52151U 22031B   26050.65037951  .00000719  00000-0  72640-4 0  9991",
    "TLE_LINE2": "2 52151  97.8570 236.0769 0010841 229.3802 130.6475 14.94151087212242"
  },
  {
    "CCSDS_OMM_VERS": "3.0",
    "COMMENT": "GENERATED VIA SPACE-TRACK.ORG API",
    "CREATION_DATE": "2026-02-19T17:59:09",
    "ORIGINATOR": "18 SPCS",
    "OBJECT_NAME": "BUCCANEER MM",
    "OBJECT_ID": "2025-052AM",
    "CENTER_NAME": "EARTH",
    "REF_FRAME": "TEME",
    "TIME_SYSTEM": "UTC",
    "MEAN_ELEMENT_THEORY": "SGP4",
    "EPOCH": "2026-02-19T15:36:08.658144",
    "MEAN_MOTION": "14.93926172",
    "ECCENTRICITY": "0.00024651",
    "INCLINATION": "97.7018",
    "RA_OF_ASC_NODE": "304.0258",
    "ARG_OF_PERICENTER": "234.4009",
    "MEAN_ANOMALY": "125.6982",
    "EPHEMERIS_TYPE": "0",
    "CLASSIFICATION_TYPE": "U",
    "NORAD_CAT_ID": "63245",
    "ELEMENT_SET_NO": "999",
    "REV_AT_EPOCH": "5104",
    "BSTAR": "0.00037373676000",
    "MEAN_MOTION_DOT": "0.00003921",
    "MEAN_MOTION_DDOT": "0.0000000000000",
    "SEMIMAJOR_AXIS": "6963.845",
    "PERIOD": "96.390",
    "APOAPSIS": "587.426",
    "PERIAPSIS": "583.993",
    "OBJECT_TYPE": "PAYLOAD",
    "RCS_SIZE": "SMALL",
    "COUNTRY_CODE": "AUS",
    "LAUNCH_DATE": "2025-03-15",
    "SITE": "AFWTR",
    "DECAY_DATE": null,
    "FILE": "5039972",
    "GP_ID": "313183862",
    "TLE_LINE0": "0 BUCCANEER MM",
    "TLE_LINE1": "1 63245U 25052AM  26050.65010021  .00003921  00000-0  37374-3 0  9994",
    "TLE_LINE2": "2 63245  97.7018 304.0258 0002465 234.4009 125.6982 14.93926172 51042"
  },
  {
    "CCSDS_OMM_VERS": "3.0",
    "COMMENT": "GENERATED VIA SPACE-TRACK.ORG API",
    "CREATION_DATE": "2026-02-19T17:59:09",
    "ORIGINATOR": "18 SPCS",
    "OBJECT_NAME": "SSTL S1-4",
    "OBJECT_ID": "2018-071A",
    "CENTER_NAME": "EARTH",
    "REF_FRAME": "TEME",
    "TIME_SYSTEM": "UTC",
    "MEAN_ELEMENT_THEORY": "SGP4",
    "EPOCH": "2026-02-19T15:36:08.424864",
    "MEAN_MOTION": "14.96270918",
    "ECCENTRICITY": "0.00013603",
    "INCLINATION": "97.5206",
    "RA_OF_ASC_NODE": "287.0226",
    "ARG_OF_PERICENTER": "130.9418",
    "MEAN_ANOMALY": "229.1922",
    "EPHEMERIS_TYPE": "0",
    "CLASSIFICATION_TYPE": "U",
    "NORAD_CAT_ID": "43618",
    "ELEMENT_SET_NO": "999",
    "REV_AT_EPOCH": "40536",
    "BSTAR": "0.00006795198200",
    "MEAN_MOTION_DOT": "0.00000713",
    "MEAN_MOTION_DDOT": "0.0000000000000",
    "SEMIMAJOR_AXIS": "6956.568",
    "PERIOD": "96.239",
    "APOAPSIS": "579.379",
    "PERIAPSIS": "577.486",
    "OBJECT_TYPE": "PAYLOAD",
    "RCS_SIZE": "LARGE",
    "COUNTRY_CODE": "UK",
    "LAUNCH_DATE": "2018-09-16",
    "SITE": "SRI",
    "DECAY_DATE": null,
    "FILE": "5039972",
    "GP_ID": "313171289",
    "TLE_LINE0": "0 SSTL S1-4",
    "TLE_LINE1": "1 43618U 18071A   26050.65009751  .00000713  00000-0  67952-4 0  9999",
    "TLE_LINE2": "2 43618  97.5206 287.0226 0001360 130.9418 229.1922 14.96270918405368"
  },
  {
    "CCSDS_OMM_VERS": "3.0",
    "COMMENT": "GENERATED VIA SPACE-TRACK.ORG API",
    "CREATION_DATE": "2026-02-19T17:59:09",
    "ORIGINATOR": "18 SPCS",
    "OBJECT_NAME": "COSMOS 1067",
    "OBJECT_ID": "1978-122A",
    "CENTER_NAME": "EARTH",
    "REF_FRAME": "TEME",
    "TIME_SYSTEM": "UTC",
    "MEAN_ELEMENT_THEORY": "SGP4",
    "EPOCH": "2026-02-19T15:35:48.548544",
    "MEAN_MOTION": "13.20231110",
    "ECCENTRICITY": "0.00369735",
    "INCLINATION": "82.9711",
    "RA_OF_ASC_NODE": "293.5437",
    "ARG_OF_PERICENTER": "122.6109",
    "MEAN_ANOMALY": "266.4941",
    "EPHEMERIS_TYPE": "0",
    "CLASSIFICATION_TYPE": "U",
    "NORAD_CAT_ID": "11168",
    "ELEMENT_SET_NO": "999",
    "REV_AT_EPOCH": "25559",
    "BSTAR": "0.00006955524400",
    "MEAN_MOTION_DOT": "0.00000042",
    "MEAN_MOTION_DDOT": "0.0000000000000",
    "SEMIMAJOR_AXIS": "7561.974",
    "PERIOD": "109.072",
    "APOAPSIS": "1211.799",
    "PERIAPSIS": "1155.880",
    "OBJECT_TYPE": "PAYLOAD",
    "RCS_SIZE": "LARGE",
    "COUNTRY_CODE": "CIS",
    "LAUNCH_DATE": "1978-12-26",
    "SITE": "PKMTR",
    "DECAY_DATE": null,
    "FILE": "5039972",
    "GP_ID": "313158291",
    "TLE_LINE0": "0 COSMOS 1067",
    "TLE_LINE1": "1 11168U 78122A   26050.64986746  .00000042  00000-0  69555-4 0  9990",
    "TLE_LINE2": "2 11168  82.9711 293.5437 0036974 122.6109 266.4941 13.20231110255592"
  },
  {
    "CCSDS_OMM_VERS": "3.0",
    "COMMENT": "GENERATED VIA SPACE-TRACK.ORG API",
    "CREATION_DATE": "2026-02-19T17:59:09",
    "ORIGINATOR": "18 SPCS",
    "OBJECT_NAME": "SSOT",
    "OBJECT_ID": "2011-076E",
    "CENTER_NAME": "EARTH",
    "REF_FRAME": "TEME",
    "TIME_SYSTEM": "UTC",
    "MEAN_ELEMENT_THEORY": "SGP4",
    "EPOCH": "2026-02-19T15:35:37.411584",
    "MEAN_MOTION": "14.82218434",
    "ECCENTRICITY": "0.00015041",
    "INCLINATION": "97.8229",
    "RA_OF_ASC_NODE": "113.7888",
    "ARG_OF_PERICENTER": "95.9342",
    "MEAN_ANOMALY": "68.7615",
    "EPHEMERIS_TYPE": "0",
    "CLASSIFICATION_TYPE": "U",
    "NORAD_CAT_ID": "38011",
    "ELEMENT_SET_NO": "999",
    "REV_AT_EPOCH": "76696",
    "BSTAR": "0.00020027090000",
    "MEAN_MOTION_DOT": "0.00001546",
    "MEAN_MOTION_DDOT": "0.0000000000000",
    "SEMIMAJOR_AXIS": "7000.467",
    "PERIOD": "97.152",
    "APOAPSIS": "623.385",
    "PERIAPSIS": "621.279",
    "OBJECT_TYPE": "PAYLOAD",
    "RCS_SIZE": "MEDIUM",
    "COUNTRY_CODE": "CHLE",
    "LAUNCH_DATE": "2011-12-17",
    "SITE": "FRGUI",
    "DECAY_DATE": null,
    "FILE": "5039972",
    "GP_ID": "313168110",
    "TLE_LINE0": "0 SSOT",
    "TLE_LINE1": "1 38011U 11076E   26050.64973856  .00001546  00000-0  20027-3 0  9999",
    "TLE_LINE2": "2 38011  97.8229 113.7888 0001504  95.9342  68.7615 14.82218434766964"
  },
  {
    "CCSDS_OMM_VERS": "3.0",
    "COMMENT": "GENERATED VIA SPACE-TRACK.ORG API",
    "CREATION_DATE": "2026-02-19T17:59:09",
    "ORIGINATOR": "18 SPCS",
    "OBJECT_NAME": "COSMOS 1464",
    "OBJECT_ID": "1983-048A",
    "CENTER_NAME": "EARTH",
    "REF_FRAME": "TEME",
    "TIME_SYSTEM": "UTC",
    "MEAN_ELEMENT_THEORY": "SGP4",
    "EPOCH": "2026-02-19T15:34:18.710688",
    "MEAN_MOTION": "13.74684059",
    "ECCENTRICITY": "0.00300730",
    "INCLINATION": "82.9447",
    "RA_OF_ASC_NODE": "292.3145",
    "ARG_OF_PERICENTER": "359.9451",
    "MEAN_ANOMALY": "28.5239",
    "EPHEMERIS_TYPE": "0",
    "CLASSIFICATION_TYPE": "U",
    "NORAD_CAT_ID": "14084",
    "ELEMENT_SET_NO": "999",
    "REV_AT_EPOCH": "14379",
    "BSTAR": "0.00005087463600",
    "MEAN_MOTION_DOT": "0.00000064",
    "MEAN_MOTION_DDOT": "0.0000000000000",
    "SEMIMAJOR_AXIS": "7360.939",
    "PERIOD": "104.751",
    "APOAPSIS": "1004.941",
    "PERIAPSIS": "960.668",
    "OBJECT_TYPE": "PAYLOAD",
    "RCS_SIZE": "LARGE",
    "COUNTRY_CODE": "CIS",
    "LAUNCH_DATE": "1983-05-24",
    "SITE": "PKMTR",
    "DECAY_DATE": null,
    "FILE": "5039972",
    "GP_ID": "313159198",
    "TLE_LINE0": "0 COSMOS 1464",
    "TLE_LINE1": "1 14084U 83048A   26050.64882767  .00000064  00000-0  50875-4 0  9990",
    "TLE_LINE2": "2 14084  82.9447 292.3145 0030073 359.9451  28.5239 13.74684059143798"
  },
  {
    "CCSDS_OMM_VERS": "3.0",
    "COMMENT": "GENERATED VIA SPACE-TRACK.ORG API",
    "CREATION_DATE": "2026-02-19T17:59:09",
    "ORIGINATOR": "18 SPCS",
    "OBJECT_NAME": "COSMOS 2336",
    "OBJECT_ID": "1996-071A",
    "CENTER_NAME": "EARTH",
    "REF_FRAME": "TEME",
    "TIME_SYSTEM": "UTC",
    "MEAN_ELEMENT_THEORY": "SGP4",
    "EPOCH": "2026-02-19T15:33:46.833408",
    "MEAN_MOTION": "13.71676512",
    "ECCENTRICITY": "0.00225222",
    "INCLINATION": "82.9407",
    "RA_OF_ASC_NODE": "293.3161",
    "ARG_OF_PERICENTER": "244.2350",
    "MEAN_ANOMALY": "144.0043",
    "EPHEMERIS_TYPE": "0",
    "CLASSIFICATION_TYPE": "U",
    "NORAD_CAT_ID": "24677",
    "ELEMENT_SET_NO": "999",
    "REV_AT_EPOCH": "45991",
    "BSTAR": "0.00005040270900",
    "MEAN_MOTION_DOT": "0.00000060",
    "MEAN_MOTION_DDOT": "0.0000000000000",
    "SEMIMAJOR_AXIS": "7371.695",
    "PERIOD": "104.981",
    "APOAPSIS": "1010.163",
    "PERIAPSIS": "976.958",
    "OBJECT_TYPE": "PAYLOAD",
    "RCS_SIZE": "LARGE",
    "COUNTRY_CODE": "CIS",
    "LAUNCH_DATE": "1996-12-20",
    "SITE": "PKMTR",
    "DECAY_DATE": null,
    "FILE": "5039972",
    "GP_ID": "313161668",
    "TLE_LINE0": "0 COSMOS 2336",
    "TLE_LINE1": "1 24677U 96071A   26050.64845872  .00000060  00000-0  50403-4 0  9998",
    "TLE_LINE2": "2 24677  82.9407 293.3161 0022522 244.2350 144.0043 13.71676512459919"
  }
]